{"type": "FeatureCollection", "features": [ {"type": "Feature", "properties": {"norad_id": 66995, "name": "2025-292C", "group": "last-30-days", "lat": 35.353623479486, "lon": 55.008505418618206, "alt_km": 556.4029734542983, "timestamp": "2025-12-13T22:39:28.447269+00:00", "meta": {"OBJECT_NAME": "2025-292C", "OBJECT_ID": "2025-292C", "EPOCH": "2025-12-11T21:01:03.496224", "MEAN_MOTION": 15.04519537, "ECCENTRICITY": 0.0014385, "INCLINATION": 97.653, "RA_OF_ASC_NODE": 58.4343, "ARG_OF_PERICENTER": 277.3974, "MEAN_ANOMALY": 82.5617, "EPHEMERIS_TYPE": 0, "CLASSIFICATION_TYPE": "U", "NORAD_CAT_ID": 66995, "ELEMENT_SET_NO": 999, "REV_AT_EPOCH": 26, "BSTAR": 0.00011824, "MEAN_MOTION_DOT": 1.597e-05, "MEAN_MOTION_DDOT": 0}, "tle": {"line1": "1 66995U 25292C   25345.87573491  .00001597  00000+0  11824-3 0  9998", "line2": "2 66995  97.6530  58.4343 0014385 277.3974  82.5617 15.04519537   261"}}, "geometry": {"type": "Point", "coordinates": [55.008505418618206, 35.353623479486]}}, {"type": "Feature", "properties": {"norad_id": 66996, "name": "2025-292D", "group": "last-30-days", "lat": 36.15809192746325, "lon": 54.845005321555924, "alt_km": 555.5068901978202, "timestamp": "2025-12-13T22:39:28.447283+00:00", "meta": {"OBJECT_NAME": "2025-292D", "OBJECT_ID": "2025-292D", "EPOCH": "2025-12-11T21:00:57.670272", "MEAN_MOTION": 15.04579315, "ECCENTRICITY": 0.0013407, "INCLINATION": 97.652, "RA_OF_ASC_NODE": 58.4351, "ARG_OF_PERICENTER": 279.6596, "MEAN_ANOMALY": 80.3115, "EPHEMERIS_TYPE": 0, "CLASSIFICATION_TYPE": "U", "NORAD_CAT_ID": 66996, "ELEMENT_SET_NO": 999, "REV_AT_EPOCH": 26, "BSTAR": 0.00011811, "MEAN_MOTION_DOT": 1.598e-05, "MEAN_MOTION_DDOT": 0}, "tle": {"line1": "1 66996U 25292D   25345.87566748  .00001598  00000+0  11811-3 0  9993", "line2": "2 66996  97.6520  58.4351 0013407 279.6596  80.3115 15.04579315   268"}}, "geometry": {"type": "Point", "coordinates": [54.845005321555924, 36.15809192746325]}}, {"type": "Feature", "properties": {"norad_id": 66997, "name": "2025-292E", "group": "last-30-days", "lat": 37.178859110679824, "lon": 54.629359062169016, "alt_km": 555.2157152772324, "timestamp": "2025-12-13T22:39:28.447293+00:00", "meta": {"OBJECT_NAME": "2025-292E", "OBJECT_ID": "2025-292E", "EPOCH": "2025-12-11T21:00:50.206176", "MEAN_MOTION": 15.04655353, "ECCENTRICITY": 0.0013781, "INCLINATION": 97.6541, "RA_OF_ASC_NODE": 58.4346, "ARG_OF_PERICENTER": 280.9887, "MEAN_ANOMALY": 78.9789, "EPHEMERIS_TYPE": 0, "CLASSIFICATION_TYPE": "U", "NORAD_CAT_ID": 66997, "ELEMENT_SET_NO": 999, "REV_AT_EPOCH": 25, "BSTAR": 0.00011812, "MEAN_MOTION_DOT": 1.601e-05, "MEAN_MOTION_DDOT": 0}, "tle": {"line1": "1 66997U 25292E   25345.87558109  .00001601  00000+0  11812-3 0  9992", "line2": "2 66997  97.6541  58.4346 0013781 280.9887  78.9789 15.04655353   255"}}, "geometry": {"type": "Point", "coordinates": [54.629359062169016, 37.178859110679824]}}, {"type": "Feature", "properties": {"norad_id": 66998, "name": "2025-292F", "group": "last-30-days", "lat": 39.14334608309154, "lon": 54.19896878558691, "alt_km": 555.0652423830397, "timestamp": "2025-12-13T22:39:28.447305+00:00", "meta": {"OBJECT_NAME": "2025-292F", "OBJECT_ID": "2025-292F", "EPOCH": "2025-12-11T21:00:35.828352", "MEAN_MOTION": 15.04802497, "ECCENTRICITY": 0.0014607, "INCLINATION": 97.6565, "RA_OF_ASC_NODE": 58.4348, "ARG_OF_PERICENTER": 280.9703, "MEAN_ANOMALY": 78.988, "EPHEMERIS_TYPE": 0, "CLASSIFICATION_TYPE": "U", "NORAD_CAT_ID": 66998, "ELEMENT_SET_NO": 999, "REV_AT_EPOCH": 26, "BSTAR": 0.00011825, "MEAN_MOTION_DOT": 1.61e-05, "MEAN_MOTION_DDOT": 0}, "tle": {"line1": "1 66998U 25292F   25345.87541468  .00001610  00000+0  11825-3 0  9997", "line2": "2 66998  97.6565  58.4348 0014607 280.9703  78.9880 15.04802497   265"}}, "geometry": {"type": "Point", "coordinates": [54.19896878558691, 39.14334608309154]}}, {"type": "Feature", "properties": {"norad_id": 66999, "name": "2025-292G", "group": "last-30-days", "lat": 39.99194778780263, "lon": 54.00697154104822, "alt_km": 554.5256404044976, "timestamp": "2025-12-13T22:39:28.447316+00:00", "meta": {"OBJECT_NAME": "2025-292G", "OBJECT_ID": "2025-292G", "EPOCH": "2025-12-11T21:00:29.832192", "MEAN_MOTION": 15.04867239, "ECCENTRICITY": 0.0014449, "INCLINATION": 97.6571, "RA_OF_ASC_NODE": 58.4362, "ARG_OF_PERICENTER": 282.848, "MEAN_ANOMALY": 77.1132, "EPHEMERIS_TYPE": 0, "CLASSIFICATION_TYPE": "U", "NORAD_CAT_ID": 66999, "ELEMENT_SET_NO": 999, "REV_AT_EPOCH": 26, "BSTAR": 0.00011819, "MEAN_MOTION_DOT": 1.612e-05, "MEAN_MOTION_DDOT": 0}, "tle": {"line1": "1 66999U 25292G   25345.87534528  .00001612  00000+0  11819-3 0  9992", "line2": "2 66999  97.6571  58.4362 0014449 282.8480  77.1132 15.04867239   262"}}, "geometry": {"type": "Point", "coordinates": [54.00697154104822, 39.99194778780263]}}, {"type": "Feature", "properties": {"norad_id": 67000, "name": "2025-292H", "group": "last-30-days", "lat": 39.95720646115924, "lon": 54.01197896257105, "alt_km": 554.384909514054, "timestamp": "2025-12-13T22:39:28.447326+00:00", "meta": {"OBJECT_NAME": "2025-292H", "OBJECT_ID": "2025-292H", "EPOCH": "2025-12-11T21:00:30.464640", "MEAN_MOTION": 15.04864273, "ECCENTRICITY": 0.0014339, "INCLINATION": 97.6576, "RA_OF_ASC_NODE": 58.4335, "ARG_OF_PERICENTER": 283.4517, "MEAN_ANOMALY": 76.5111, "EPHEMERIS_TYPE": 0, "CLASSIFICATION_TYPE": "U", "NORAD_CAT_ID": 67000, "ELEMENT_SET_NO": 999, "REV_AT_EPOCH": 13, "BSTAR": 0.00023206, "MEAN_MOTION_DOT": 3.225e-05, "MEAN_MOTION_DDOT": 0}, "tle": {"line1": "1 67000U 25292H   25345.87535260  .00003225  00000+0  23206-3 0  9995", "line2": "2 67000  97.6576  58.4335 0014339 283.4517  76.5111 15.04864273   138"}}, "geometry": {"type": "Point", "coordinates": [54.01197896257105, 39.95720646115924]}}, {"type": "Feature", "properties": {"norad_id": 67001, "name": "2025-292J", "group": "last-30-days", "lat": 32.305498149176465, "lon": 55.60375170672011, "alt_km": 557.8600131794719, "timestamp": "2025-12-13T22:39:28.447335+00:00", "meta": {"OBJECT_NAME": "2025-292J", "OBJECT_ID": "2025-292J", "EPOCH": "2025-12-13T03:21:22.436928", "MEAN_MOTION": 15.04307819, "ECCENTRICITY": 0.00143728, "INCLINATION": 97.6569, "RA_OF_ASC_NODE": 59.687, "ARG_OF_PERICENTER": 267.5274, "MEAN_ANOMALY": 92.4307, "EPHEMERIS_TYPE": 0, "CLASSIFICATION_TYPE": "U", "NORAD_CAT_ID": 67001, "ELEMENT_SET_NO": 999, "REV_AT_EPOCH": 45, "BSTAR": 0.00065481897, "MEAN_MOTION_DOT": 9.086e-05, "MEAN_MOTION_DDOT": 0}, "tle": {"line1": "1 67001U 25292J   25347.13984302  .00009086  00000+0  65482-3 0  9995", "line2": "2 67001  97.6569  59.6870 0014372 267.5274  92.4307 15.04307819   455"}}, "geometry": {"type": "Point", "coordinates": [55.60375170672011, 32.305498149176465]}}, {"type": "Feature", "properties": {"norad_id": 67002, "name": "ZK-1A R/B", "group": "last-30-days", "lat": -13.31637593876143, "lon": 62.660621074105116, "alt_km": 263.02029525427406, "timestamp": "2025-12-13T22:39:28.447346+00:00", "meta": {"OBJECT_NAME": "ZK-1A R/B", "OBJECT_ID": "2025-292K", "EPOCH": "2025-12-13T07:16:06.651264", "MEAN_MOTION": 15.54771702, "ECCENTRICITY": 0.02197312, "INCLINATION": 97.7239, "RA_OF_ASC_NODE": 60.127, "ARG_OF_PERICENTER": 3.9286, "MEAN_ANOMALY": 356.3626, "EPHEMERIS_TYPE": 0, "CLASSIFICATION_TYPE": "U", "NORAD_CAT_ID": 67002, "ELEMENT_SET_NO": 999, "REV_AT_EPOCH": 48, "BSTAR": 0.0010858711, "MEAN_MOTION_DOT": 0.00220346, "MEAN_MOTION_DDOT": 1.4650739e-05}, "tle": {"line1": "1 67002U 25292K   25347.30285476  .00220346  14651-4  10859-2 0  9994", "line2": "2 67002  97.7239  60.1270 0219731   3.9286 356.3626 15.54771702   483"}}, "geometry": {"type": "Point", "coordinates": [62.660621074105116, -13.31637593876143]}}, {"type": "Feature", "properties": {"norad_id": 67059, "name": "HULIANWANG DIGUI 16A", "group": "last-30-days", "lat": -47.05260548003931, "lon": -108.42442706078394, "alt_km": 800.1136401828207, "timestamp": "2025-12-13T22:39:28.447356+00:00", "meta": {"OBJECT_NAME": "HULIANWANG DIGUI 16A", "OBJECT_ID": "2025-295A", "EPOCH": "2025-12-12T05:06:27.347328", "MEAN_MOTION": 14.25879966, "ECCENTRICITY": 0.00136284, "INCLINATION": 50.0035, "RA_OF_ASC_NODE": 14.4753, "ARG_OF_PERICENTER": 247.7813, "MEAN_ANOMALY": 112.1656, "EPHEMERIS_TYPE": 0, "CLASSIFICATION_TYPE": "U", "NORAD_CAT_ID": 67059, "ELEMENT_SET_NO": 999, "REV_AT_EPOCH": 4, "BSTAR": 3.434713e-06, "MEAN_MOTION_DOT": -1.52e-06, "MEAN_MOTION_DDOT": 0}, "tle": {"line1": "1 67059U 25295A   25346.21281652 -.00000152  00000+0  34347-5 0  9991", "line2": "2 67059  50.0035  14.4753 0013628 247.7813 112.1656 14.25879966    41"}}, "geometry": {"type": "Point", "coordinates": [-108.42442706078394, -47.05260548003931]}}, {"type": "Feature", "properties": {"norad_id": 67060, "name": "HULIANWANG DIGUI 16B", "group": "last-30-days", "lat": -47.37784745999995, "lon": -107.00719327741788, "alt_km": 799.8079718231902, "timestamp": "2025-12-13T22:39:28.447366+00:00", "meta": {"OBJECT_NAME": "HULIANWANG DIGUI 16B", "OBJECT_ID": "2025-295B", "EPOCH": "2025-12-12T05:06:25.468992", "MEAN_MOTION": 14.26022254, "ECCENTRICITY": 0.0013423, "INCLINATION": 50.0012, "RA_OF_ASC_NODE": 14.4776, "ARG_OF_PERICENTER": 244.6732, "MEAN_ANOMALY": 115.2792, "EPHEMERIS_TYPE": 0, "CLASSIFICATION_TYPE": "U", "NORAD_CAT_ID": 67060, "ELEMENT_SET_NO": 999, "REV_AT_EPOCH": 4, "BSTAR": 4.398892e-06, "MEAN_MOTION_DOT": -1.5e-06, "MEAN_MOTION_DDOT": 0}, "tle": {"line1": "1 67060U 25295B   25346.21279478 -.00000150  00000+0  43989-5 0  9996", "line2": "2 67060  50.0012  14.4776 0013423 244.6732 115.2792 14.26022254    48"}}, "geometry": {"type": "Point", "coordinates": [-107.00719327741788, -47.37784745999995]}}]}